start=new Date('2021-12-01T00:00:00.000Z').valueOf();
sats=[{"TLE_LINE1":"1 46376U 20062BD  21334.73021253  .00001012  00000-0  86821-4 0  9995","NORAD_CAT_ID":"46376","EPHEMERIS_TYPE":"0","ARG_OF_PERICENTER":"84.2464","REV_AT_EPOCH":"6981","MEAN_ELEMENT_THEORY":"SGP4","PERIAPSIS":"546.022","INCLINATION":"53.0523","GP_ID":"190817136","BSTAR":"0.00008682100000","SITE":"AFETR","OBJECT_NAME":"STARLINK-1742","EPOCH":"2021-11-30T17:31:30.362592","MEAN_ANOMALY":"275.8723","PERIOD":"95.592","OBJECT_ID":"2020-062BD","CLASSIFICATION_TYPE":"U","TLE_LINE2":"2 46376  53.0523 134.5514 0001736  84.2464 275.8723 15.06396494 69819","MEAN_MOTION_DDOT":"0.0000000000000","SEMIMAJOR_AXIS":"6925.359","RA_OF_ASC_NODE":"134.5514","LAUNCH_DATE":"2020-09-03","APOAPSIS":"548.427","MEAN_MOTION_DOT":"0.00001012","ELEMENT_SET_NO":"999","MEAN_MOTION":"15.06396494","COUNTRY_CODE":"US","DECAY_DATE":null,"CENTER_NAME":"EARTH","RCS_SIZE":"LARGE","OBJECT_TYPE":"PAYLOAD","REF_FRAME":"TEME","FILE":"3228256","TIME_SYSTEM":"UTC","ECCENTRICITY":"0.00017360"},{"APOAPSIS":"440.799","LAUNCH_DATE":"2020-09-03","RA_OF_ASC_NODE":"131.5114","SEMIMAJOR_AXIS":"6817.809","TLE_LINE2":"2 46378  53.0512 131.5114 0001649  67.7543 292.3637 15.42181463 69859","MEAN_MOTION_DDOT":"0.0000000000000","CLASSIFICATION_TYPE":"U","OBJECT_ID":"2020-062BF","BSTAR":"0.00000988070000","GP_ID":"190815884","SITE":"AFETR","INCLINATION":"53.0512","PERIOD":"93.374","MEAN_ANOMALY":"292.3637","EPOCH":"2021-11-30T17:04:56.784576","OBJECT_NAME":"STARLINK-1751","EPHEMERIS_TYPE":"0","ARG_OF_PERICENTER":"67.7543","NORAD_CAT_ID":"46378","TLE_LINE1":"1 46378U 20062BF  21334.71176834  .00000018  00000-0  98807-5 0  9994","PERIAPSIS":"438.550","MEAN_ELEMENT_THEORY":"SGP4","REV_AT_EPOCH":"6985","ECCENTRICITY":"0.00016490","RCS_SIZE":"LARGE","OBJECT_TYPE":"PAYLOAD","REF_FRAME":"TEME","DECAY_DATE":null,"CENTER_NAME":"EARTH","COUNTRY_CODE":"US","TIME_SYSTEM":"UTC","FILE":"3228256","MEAN_MOTION":"15.42181463","MEAN_MOTION_DOT":"0.00000018","ELEMENT_SET_NO":"999"},{"SEMIMAJOR_AXIS":"6925.372","RA_OF_ASC_NODE":"162.9679","LAUNCH_DATE":"2020-09-03","APOAPSIS":"548.666","MEAN_MOTION_DDOT":"0.0000000000000","TLE_LINE2":"2 46380  53.0542 162.9679 0002064  81.8658 278.2565 15.06392461 69355","CLASSIFICATION_TYPE":"U","OBJECT_ID":"2020-062BH","SITE":"AFETR","GP_ID":"190783914","BSTAR":"-0.00005334400000","INCLINATION":"53.0542","MEAN_ANOMALY":"278.2565","PERIOD":"95.593","OBJECT_NAME":"STARLINK-1758","EPOCH":"2021-11-29T23:12:08.210016","ARG_OF_PERICENTER":"81.8658","EPHEMERIS_TYPE":"0","TLE_LINE1":"1 46380U 20062BH  21333.96676169 -.00001076  00000-0 -53344-4 0  9992","NORAD_CAT_ID":"46380","MEAN_ELEMENT_THEORY":"SGP4","PERIAPSIS":"545.807","REV_AT_EPOCH":"6935","ECCENTRICITY":"0.00020640","CENTER_NAME":"EARTH","DECAY_DATE":null,"COUNTRY_CODE":"US","OBJECT_TYPE":"PAYLOAD","RCS_SIZE":"LARGE","REF_FRAME":"TEME","FILE":"3227572","TIME_SYSTEM":"UTC","MEAN_MOTION":"15.06392461","MEAN_MOTION_DOT":"-0.00001076","ELEMENT_SET_NO":"999"},{"MEAN_MOTION":"15.06408014","MEAN_MOTION_DOT":"0.00001543","ELEMENT_SET_NO":"999","ECCENTRICITY":"0.00019900","RCS_SIZE":"LARGE","REF_FRAME":"TEME","OBJECT_TYPE":"PAYLOAD","COUNTRY_CODE":"US","DECAY_DATE":null,"CENTER_NAME":"EARTH","TIME_SYSTEM":"UTC","FILE":"3228256","SITE":"AFETR","GP_ID":"190817385","BSTAR":"0.00012242000000","INCLINATION":"53.0542","PERIOD":"95.592","MEAN_ANOMALY":"267.5057","EPOCH":"2021-11-30T17:52:43.389696","OBJECT_NAME":"STARLINK-1769","ARG_OF_PERICENTER":"92.6160","EPHEMERIS_TYPE":"0","NORAD_CAT_ID":"46382","TLE_LINE1":"1 46382U 20062BK  21334.74494664  .00001543  00000-0  12242-3 0  9997","PERIAPSIS":"545.811","MEAN_ELEMENT_THEORY":"SGP4","REV_AT_EPOCH":"6982","LAUNCH_DATE":"2020-09-03","APOAPSIS":"548.567","RA_OF_ASC_NODE":"134.4933","SEMIMAJOR_AXIS":"6925.324","TLE_LINE2":"2 46382  53.0542 134.4933 0001990  92.6160 267.5057 15.06408014 69820","MEAN_MOTION_DDOT":"0.0000000000000","CLASSIFICATION_TYPE":"U","OBJECT_ID":"2020-062BK"},{"OBJECT_ID":"2020-062BL","CLASSIFICATION_TYPE":"U","TLE_LINE2":"2 46383  53.0533 178.9509 0002225  78.2259 281.8979 15.06399676 69201","MEAN_MOTION_DDOT":"0.0000000000000","SEMIMAJOR_AXIS":"6925.350","RA_OF_ASC_NODE":"178.9509","LAUNCH_DATE":"2020-09-03","APOAPSIS":"548.755","TLE_LINE1":"1 46383U 20062BL  21334.86428661  .00001074  00000-0  90996-4 0  9997","NORAD_CAT_ID":"46383","EPHEMERIS_TYPE":"0","ARG_OF_PERICENTER":"78.2259","REV_AT_EPOCH":"6920","MEAN_ELEMENT_THEORY":"SGP4","PERIAPSIS":"545.674","INCLINATION":"53.0533","GP_ID":"190817636","BSTAR":"0.00009099600000","SITE":"AFETR","OBJECT_NAME":"STARLINK-1770","EPOCH":"2021-11-30T20:44:34.363104","MEAN_ANOMALY":"281.8979","PERIOD":"95.592","CENTER_NAME":"EARTH","DECAY_DATE":null,"COUNTRY_CODE":"US","RCS_SIZE":"LARGE","OBJECT_TYPE":"PAYLOAD","REF_FRAME":"TEME","FILE":"3228256","TIME_SYSTEM":"UTC","ECCENTRICITY":"0.00022250","MEAN_MOTION_DOT":"0.00001074","ELEMENT_SET_NO":"999","MEAN_MOTION":"15.06399676"},{"ELEMENT_SET_NO":"999","MEAN_MOTION_DOT":"0.00000894","MEAN_MOTION":"15.06395772","TIME_SYSTEM":"UTC","FILE":"3228256","RCS_SIZE":"LARGE","OBJECT_TYPE":"PAYLOAD","REF_FRAME":"TEME","DECAY_DATE":null,"CENTER_NAME":"EARTH","COUNTRY_CODE":"US","ECCENTRICITY":"0.00022560","PERIAPSIS":"545.664","MEAN_ELEMENT_THEORY":"SGP4","REV_AT_EPOCH":"6920","EPHEMERIS_TYPE":"0","ARG_OF_PERICENTER":"78.1611","NORAD_CAT_ID":"46384","TLE_LINE1":"1 46384U 20062BM  21334.86796687  .00000894  00000-0  78949-4 0  9997","PERIOD":"95.592","MEAN_ANOMALY":"281.9631","EPOCH":"2021-11-30T20:49:52.337568","OBJECT_NAME":"STARLINK-1771","GP_ID":"190816384","BSTAR":"0.00007894900000","SITE":"AFETR","INCLINATION":"53.0526","CLASSIFICATION_TYPE":"U","OBJECT_ID":"2020-062BM","APOAPSIS":"548.789","LAUNCH_DATE":"2020-09-03","RA_OF_ASC_NODE":"178.9170","SEMIMAJOR_AXIS":"6925.362","TLE_LINE2":"2 46384  53.0526 178.9170 0002256  78.1611 281.9631 15.06395772 69202","MEAN_MOTION_DDOT":"0.0000000000000"},{"PERIAPSIS":"545.962","MEAN_ELEMENT_THEORY":"SGP4","REV_AT_EPOCH":"6438","ARG_OF_PERICENTER":"55.4604","EPHEMERIS_TYPE":"0","NORAD_CAT_ID":"46532","TLE_LINE1":"1 46532U 20070A   21334.73526670  .00000422  00000-0  47214-4 0  9998","PERIOD":"95.592","MEAN_ANOMALY":"304.6556","EPOCH":"2021-11-30T17:38:47.042880","OBJECT_NAME":"STARLINK-1644","BSTAR":"0.00004721400000","GP_ID":"190817650","SITE":"AFETR","INCLINATION":"53.0555","CLASSIFICATION_TYPE":"U","OBJECT_ID":"2020-070A","LAUNCH_DATE":"2020-10-06","APOAPSIS":"548.477","SEMIMAJOR_AXIS":"6925.354","RA_OF_ASC_NODE":"339.5293","MEAN_MOTION_DDOT":"0.0000000000000","TLE_LINE2":"2 46532  53.0555 339.5293 0001816  55.4604 304.6556 15.06398100 64382","ELEMENT_SET_NO":"999","MEAN_MOTION_DOT":"0.00000422","MEAN_MOTION":"15.06398100","TIME_SYSTEM":"UTC","FILE":"3228256","RCS_SIZE":"LARGE","REF_FRAME":"TEME","OBJECT_TYPE":"PAYLOAD","COUNTRY_CODE":"US","DECAY_DATE":null,"CENTER_NAME":"EARTH","ECCENTRICITY":"0.00018160"},{"ELEMENT_SET_NO":"999","MEAN_MOTION_DOT":"0.00000480","MEAN_MOTION":"15.06400794","FILE":"3228256","TIME_SYSTEM":"UTC","CENTER_NAME":"EARTH","DECAY_DATE":null,"COUNTRY_CODE":"US","RCS_SIZE":"LARGE","OBJECT_TYPE":"PAYLOAD","REF_FRAME":"TEME","ECCENTRICITY":"0.00016860","MEAN_ELEMENT_THEORY":"SGP4","PERIAPSIS":"546.044","REV_AT_EPOCH":"6438","ARG_OF_PERICENTER":"55.0538","EPHEMERIS_TYPE":"0","TLE_LINE1":"1 46533U 20070B   21334.74632298  .00000480  00000-0  51157-4 0  9999","NORAD_CAT_ID":"46533","MEAN_ANOMALY":"305.0609","PERIOD":"95.592","OBJECT_NAME":"STARLINK-1648","EPOCH":"2021-11-30T17:54:42.305472","SITE":"AFETR","GP_ID":"190816398","BSTAR":"0.00005115700000","INCLINATION":"53.0526","CLASSIFICATION_TYPE":"U","OBJECT_ID":"2020-070B","SEMIMAJOR_AXIS":"6925.346","RA_OF_ASC_NODE":"339.4945","LAUNCH_DATE":"2020-10-06","APOAPSIS":"548.379","TLE_LINE2":"2 46533  53.0526 339.4945 0001686  55.0538 305.0609 15.06400794 64388","MEAN_MOTION_DDOT":"0.0000000000000"},{"ECCENTRICITY":"0.00015340","REF_FRAME":"TEME","RCS_SIZE":"LARGE","OBJECT_TYPE":"PAYLOAD","DECAY_DATE":null,"CENTER_NAME":"EARTH","COUNTRY_CODE":"US","TIME_SYSTEM":"UTC","FILE":"3228256","MEAN_MOTION":"15.06409153","MEAN_MOTION_DOT":"0.00000046","ELEMENT_SET_NO":"999","LAUNCH_DATE":"2020-10-06","APOAPSIS":"548.248","RA_OF_ASC_NODE":"339.5580","SEMIMAJOR_AXIS":"6925.321","MEAN_MOTION_DDOT":"0.0000000000000","TLE_LINE2":"2 46534  53.0545 339.5580 0001534  67.0475 293.0676 15.06409153 64389","CLASSIFICATION_TYPE":"U","OBJECT_ID":"2020-070C","GP_ID":"190816648","BSTAR":"0.00002196400000","SITE":"AFETR","INCLINATION":"53.0545","PERIOD":"95.592","MEAN_ANOMALY":"293.0676","EPOCH":"2021-11-30T17:28:09.600960","OBJECT_NAME":"STARLINK-1659","EPHEMERIS_TYPE":"0","ARG_OF_PERICENTER":"67.0475","NORAD_CAT_ID":"46534","TLE_LINE1":"1 46534U 20070C   21334.72788890  .00000046  00000-0  21964-4 0  9999","PERIAPSIS":"546.123","MEAN_ELEMENT_THEORY":"SGP4","REV_AT_EPOCH":"6438"},{"INCLINATION":"53.0550","BSTAR":"0.00002595900000","GP_ID":"190816900","SITE":"AFETR","EPOCH":"2021-11-30T17:12:14.214816","OBJECT_NAME":"STARLINK-1663","PERIOD":"95.592","MEAN_ANOMALY":"304.4466","NORAD_CAT_ID":"46535","TLE_LINE1":"1 46535U 20070D   21334.71683119  .00000105  00000-0  25959-4 0  9991","EPHEMERIS_TYPE":"0","ARG_OF_PERICENTER":"55.6680","REV_AT_EPOCH":"6437","PERIAPSIS":"546.058","MEAN_ELEMENT_THEORY":"SGP4","MEAN_MOTION_DDOT":"0.0000000000000","TLE_LINE2":"2 46535  53.0550 339.6165 0001667  55.6680 304.4466 15.06400388 64378","LAUNCH_DATE":"2020-10-06","APOAPSIS":"548.367","RA_OF_ASC_NODE":"339.6165","SEMIMAJOR_AXIS":"6925.347","OBJECT_ID":"2020-070D","CLASSIFICATION_TYPE":"U","MEAN_MOTION":"15.06400388","MEAN_MOTION_DOT":"0.00000105","ELEMENT_SET_NO":"999","ECCENTRICITY":"0.00016670","OBJECT_TYPE":"PAYLOAD","RCS_SIZE":"LARGE","REF_FRAME":"TEME","COUNTRY_CODE":"US","DECAY_DATE":null,"CENTER_NAME":"EARTH","TIME_SYSTEM":"UTC","FILE":"3228256"}];
